{
  "type": "FeatureCollection",
  "name": "Uganda",
  "crs": {
    "type": "name",
    "properties": { "name": "urn:ogc:def:crs:OGC:1.3:CRS84" }
  },
  "features": [
    {
      "type": "Feature",
      "properties": {
        "name": "Uganda",
        "ISO_A3": "UGA",
        "admin_level": 0
      },
      "geometry": {
        "type": "Polygon",
        "coordinates": [
          [
            [29.573457, -1.475111],
            [29.930367, -1.302334],
            [30.421503, -1.065049],
            [30.76986, -0.479346],
            [31.164771, 0.037925],
            [31.797318, 0.237974],
            [32.463442, 0.399855],
            [33.188457, 0.411097],
            [33.903711, 0.109814],
            [34.250127, 0.384382],
            [34.479126, 0.798556],
            [34.597916, 1.531889],
            [34.775127, 1.949775],
            [34.826303, 2.389689],
            [35.016663, 2.911802],
            [35.199663, 3.243815],
            [35.270664, 3.840254],
            [35.686845, 4.247721],
            [35.906849, 4.546544],
            [36.279541, 4.412809],
            [36.875469, 4.656616],
            [37.40317, 4.816566],
            [37.836171, 4.604637],
            [38.410442, 4.389621],
            [38.797728, 3.906321],
            [39.674662, 3.851874],
            [39.868785, 3.487069],
            [39.908054, 2.786758],
            [38.719003, 2.638761],
            [37.539917, 2.089589],
            [36.776542, 1.201357],
            [35.661967, 0.158844],
            [34.951642, -0.189451],
            [34.250127, -0.630356],
            [33.903711, -1.00238],
            [33.203388, -1.224369],
            [32.462134, -1.301634],
            [31.734398, -1.479443],
            [30.833852, -1.302334],
            [30.121731, -1.061906],
            [29.573457, -1.475111]
          ]
        ]
      }
    }
  ]
}
